{"type":"FeatureCollection","features":[{"type":"Feature","geometry":{"type":"Point","coordinates":[1.52109,42.50779]},"properties":{"name":"Andorra la Vella","ascii":"Andorra la Vella","country":"AD","population":20430}},{"type":"Feature","geometry":{"type":"Point","coordinates":[54.39696,24.45118]},"properties":{"name":"Abu Dhabi","ascii":"Abu Dhabi","country":"AE","population":1807000}},{"type":"Feature","geometry":{"type":"Point","coordinates":[69.17233,34.52813]},"properties":{"name":"Kabul","ascii":"Kabul","country":"AF","population":4434550}},{"type":"Feature","geometry":{"type":"Point","coordinates":[-61.84329,17.12096]},"properties":{"name":"Saint John\u2019s","ascii":"Saint John's","country":"AG","population":51737}},{"type":"Feature","geometry":{"type":"Point","coordinates":[-63.05783,18.21704]},"properties":{"name":"The Valley","ascii":"The Valley","country":"AI","population":2035}},{"type":"Feature","geometry":{"type":"Point","coordinates":[19.81866,41.32744]},"properties":{"name":"Tirana","ascii":"Tirana","country":"AL","population":418495}},{"type":"Feature","geometry":{"type":"Point","coordinates":[44.5126,40.17765]},"properties":{"name":"Yerevan","ascii":"Yerevan","country":"AM","population":1144700}},{"type":"Feature","geometry":{"type":"Point","coordinates":[13.23432,-8.83682]},"properties":{"name":"Luanda","ascii":"Luanda","country":"AO","population":2776168}},{"type":"Feature","geometry":{"type":"Point","coordinates":[-58.37723,-34.61315]},"properties":{"name":"Buenos Aires","ascii":"Buenos Aires","country":"AR","population":2891082}},{"type":"Feature","geometry":{"type":"Point","coordinates":[-170.7025,-14.27806]},"properties":{"name":"Pago Pago","ascii":"Pago Pago","country":"AS","population":11500}},{"type":"Feature","geometry":{"type":"Point","coordinates":[16.37208,48.20849]},"properties":{"name":"Vienna","ascii":"Vienna","country":"AT","population":1691468}},{"type":"Feature","geometry":{"type":"Point","coordinates":[149.12807,-35.28346]},"properties":{"name":"Canberra","ascii":"Canberra","country":"AU","population":367752}},{"type":"Feature","geometry":{"type":"Point","coordinates":[-70.02703,12.52398]},"properties":{"name":"Oranjestad","ascii":"Oranjestad","country":"AW","population":29998}},{"type":"Feature","geometry":{"type":"Point","coordinates":[19.93481,60.09726]},"properties":{"name":"Mariehamn","ascii":"Mariehamn","country":"AX","population":10682}},{"type":"Feature","geometry":{"type":"Point","coordinates":[49.89201,40.37767]},"properties":{"name":"Baku","ascii":"Baku","country":"AZ","population":2351300}},{"type":"Feature","geometry":{"type":"Point","coordinates":[18.35644,43.84864]},"properties":{"name":"Sarajevo","ascii":"Sarajevo","country":"BA","population":696731}},{"type":"Feature","geometry":{"type":"Point","coordinates":[-59.62021,13.10732]},"properties":{"name":"Bridgetown","ascii":"Bridgetown","country":"BB","population":98511}},{"type":"Feature","geometry":{"type":"Point","coordinates":[90.40744,23.7104]},"properties":{"name":"Dhaka","ascii":"Dhaka","country":"BD","population":10356500}},{"type":"Feature","geometry":{"type":"Point","coordinates":[4.34878,50.85045]},"properties":{"name":"Brussels","ascii":"Brussels","country":"BE","population":1019022}},{"type":"Feature","geometry":{"type":"Point","coordinates":[-1.53388,12.36566]},"properties":{"name":"Ouagadougou","ascii":"Ouagadougou","country":"BF","population":2415266}},{"type":"Feature","geometry":{"type":"Point","coordinates":[23.32415,42.69751]},"properties":{"name":"Sofia","ascii":"Sofia","country":"BG","population":1152556}},{"type":"Feature","geometry":{"type":"Point","coordinates":[50.58565,26.22787]},"properties":{"name":"Manama","ascii":"Manama","country":"BH","population":147074}},{"type":"Feature","geometry":{"type":"Point","coordinates":[29.92463,-3.42708]},"properties":{"name":"Gitega","ascii":"Gitega","country":"BI","population":64904}},{"type":"Feature","geometry":{"type":"Point","coordinates":[2.60359,6.49646]},"properties":{"name":"Porto-Novo","ascii":"Porto-Novo","country":"BJ","population":264320}},{"type":"Feature","geometry":{"type":"Point","coordinates":[-62.84978,17.89618]},"properties":{"name":"Gustavia","ascii":"Gustavia","country":"BL","population":5988}},{"type":"Feature","geometry":{"type":"Point","coordinates":[-64.78303,32.2949]},"properties":{"name":"Hamilton","ascii":"Hamilton","country":"BM","population":902}},{"type":"Feature","geometry":{"type":"Point","coordinates":[114.94006,4.89035]},"properties":{"name":"Bandar Seri Begawan","ascii":"Bandar Seri Begawan","country":"BN","population":64409}},{"type":"Feature","geometry":{"type":"Point","coordinates":[-65.26274,-19.03332]},"properties":{"name":"Sucre","ascii":"Sucre","country":"BO","population":224838}},{"type":"Feature","geometry":{"type":"Point","coordinates":[-68.26667,12.15]},"properties":{"name":"Kralendijk","ascii":"Kralendijk","country":"BQ","population":10620}},{"type":"Feature","geometry":{"type":"Point","coordinates":[-47.92972,-15.77972]},"properties":{"name":"Bras\u00edlia","ascii":"Brasilia","country":"BR","population":2207718}},{"type":"Feature","geometry":{"type":"Point","coordinates":[-77.34306,25.05823]},"properties":{"name":"Nassau","ascii":"Nassau","country":"BS","population":227940}},{"type":"Feature","geometry":{"type":"Point","coordinates":[89.64191,27.46609]},"properties":{"name":"Thimphu","ascii":"Thimphu","country":"BT","population":98676}},{"type":"Feature","geometry":{"type":"Point","coordinates":[25.90859,-24.65451]},"properties":{"name":"Gaborone","ascii":"Gaborone","country":"BW","population":246325}},{"type":"Feature","geometry":{"type":"Point","coordinates":[27.56653,53.90019]},"properties":{"name":"Minsk","ascii":"Minsk","country":"BY","population":1742124}},{"type":"Feature","geometry":{"type":"Point","coordinates":[-88.76401,17.25376]},"properties":{"name":"Belmopan","ascii":"Belmopan","country":"BZ","population":13381}},{"type":"Feature","geometry":{"type":"Point","coordinates":[-75.69812,45.41117]},"properties":{"name":"Ottawa","ascii":"Ottawa","country":"CA","population":1017449}},{"type":"Feature","geometry":{"type":"Point","coordinates":[96.82251,-12.15681]},"properties":{"name":"West Island","ascii":"West Island","country":"CC","population":120}},{"type":"Feature","geometry":{"type":"Point","coordinates":[15.31357,-4.32758]},"properties":{"name":"Kinshasa","ascii":"Kinshasa","country":"CD","population":16000000}},{"type":"Feature","geometry":{"type":"Point","coordinates":[18.55496,4.36122]},"properties":{"name":"Bangui","ascii":"Bangui","country":"CF","population":812407}},{"type":"Feature","geometry":{"type":"Point","coordinates":[15.28318,-4.26613]},"properties":{"name":"Brazzaville","ascii":"Brazzaville","country":"CG","population":1982000}},{"type":"Feature","geometry":{"type":"Point","coordinates":[7.44744,46.94809]},"properties":{"name":"Bern","ascii":"Bern","country":"CH","population":121631}},{"type":"Feature","geometry":{"type":"Point","coordinates":[-5.27674,6.82055]},"properties":{"name":"Yamoussoukro","ascii":"Yamoussoukro","country":"CI","population":275686}},{"type":"Feature","geometry":{"type":"Point","coordinates":[-159.77546,-21.2075]},"properties":{"name":"Avarua","ascii":"Avarua","country":"CK","population":13373}},{"type":"Feature","geometry":{"type":"Point","coordinates":[-70.64827,-33.45694]},"properties":{"name":"Santiago","ascii":"Santiago","country":"CL","population":4837295}},{"type":"Feature","geometry":{"type":"Point","coordinates":[11.51667,3.86667]},"properties":{"name":"Yaound\u00e9","ascii":"Yaounde","country":"CM","population":1299369}},{"type":"Feature","geometry":{"type":"Point","coordinates":[116.39723,39.9075]},"properties":{"name":"Beijing","ascii":"Beijing","country":"CN","population":18960744}},{"type":"Feature","geometry":{"type":"Point","coordinates":[-74.08175,4.60971]},"properties":{"name":"Bogot\u00e1","ascii":"Bogota","country":"CO","population":7674366}},{"type":"Feature","geometry":{"type":"Point","coordinates":[-84.08489,9.93388]},"properties":{"name":"San Jos\u00e9","ascii":"San Jose","country":"CR","population":335007}},{"type":"Feature","geometry":{"type":"Point","coordinates":[-82.38304,23.13302]},"properties":{"name":"Havana","ascii":"Havana","country":"CU","population":2163824}},{"type":"Feature","geometry":{"type":"Point","coordinates":[-23.51254,14.93152]},"properties":{"name":"Praia","ascii":"Praia","country":"CV","population":137868}},{"type":"Feature","geometry":{"type":"Point","coordinates":[-68.88641,12.12246]},"properties":{"name":"Willemstad","ascii":"Willemstad","country":"CW","population":125000}},{"type":"Feature","geometry":{"type":"Point","coordinates":[105.67912,-10.42172]},"properties":{"name":"Flying Fish Cove","ascii":"Flying Fish Cove","country":"CX","population":500}},{"type":"Feature","geometry":{"type":"Point","coordinates":[33.35397,35.17284]},"properties":{"name":"Nicosia","ascii":"Nicosia","country":"CY","population":200452}},{"type":"Feature","geometry":{"type":"Point","coordinates":[14.42076,50.08804]},"properties":{"name":"Prague","ascii":"Prague","country":"CZ","population":1165581}},{"type":"Feature","geometry":{"type":"Point","coordinates":[13.41053,52.52437]},"properties":{"name":"Berlin","ascii":"Berlin","country":"DE","population":3426354}},{"type":"Feature","geometry":{"type":"Point","coordinates":[43.14503,11.58901]},"properties":{"name":"Djibouti","ascii":"Djibouti","country":"DJ","population":626512}},{"type":"Feature","geometry":{"type":"Point","coordinates":[12.56553,55.67594]},"properties":{"name":"Copenhagen","ascii":"Copenhagen","country":"DK","population":1153615}},{"type":"Feature","geometry":{"type":"Point","coordinates":[-61.38808,15.30174]},"properties":{"name":"Roseau","ascii":"Roseau","country":"DM","population":16571}},{"type":"Feature","geometry":{"type":"Point","coordinates":[-69.89232,18.47186]},"properties":{"name":"Santo Domingo","ascii":"Santo Domingo","country":"DO","population":2201941}},{"type":"Feature","geometry":{"type":"Point","coordinates":[3.08746,36.73225]},"properties":{"name":"Algiers","ascii":"Algiers","country":"DZ","population":2364230}},{"type":"Feature","geometry":{"type":"Point","coordinates":[-78.52495,-0.22985]},"properties":{"name":"Quito","ascii":"Quito","country":"EC","population":2781641}},{"type":"Feature","geometry":{"type":"Point","coordinates":[24.75353,59.43696]},"properties":{"name":"Tallinn","ascii":"Tallinn","country":"EE","population":394024}},{"type":"Feature","geometry":{"type":"Point","coordinates":[31.24967,30.06263]},"properties":{"name":"Cairo","ascii":"Cairo","country":"EG","population":9606916}},{"type":"Feature","geometry":{"type":"Point","coordinates":[38.93184,15.33805]},"properties":{"name":"Asmara","ascii":"Asmara","country":"ER","population":563930}},{"type":"Feature","geometry":{"type":"Point","coordinates":[-3.70256,40.4165]},"properties":{"name":"Madrid","ascii":"Madrid","country":"ES","population":3255944}},{"type":"Feature","geometry":{"type":"Point","coordinates":[38.74689,9.02497]},"properties":{"name":"Addis Ababa","ascii":"Addis Ababa","country":"ET","population":3860000}},{"type":"Feature","geometry":{"type":"Point","coordinates":[24.93545,60.16952]},"properties":{"name":"Helsinki","ascii":"Helsinki","country":"FI","population":658864}},{"type":"Feature","geometry":{"type":"Point","coordinates":[178.42531,-18.13683]},"properties":{"name":"Suva","ascii":"Suva","country":"FJ","population":77366}},{"type":"Feature","geometry":{"type":"Point","coordinates":[-57.85701,-51.69382]},"properties":{"name":"Stanley","ascii":"Stanley","country":"FK","population":2213}},{"type":"Feature","geometry":{"type":"Point","coordinates":[158.16109,6.92477]},"properties":{"name":"Palikir","ascii":"Palikir","country":"FM","population":6942}},{"type":"Feature","geometry":{"type":"Point","coordinates":[-6.77164,62.00973]},"properties":{"name":"T\u00f3rshavn","ascii":"Torshavn","country":"FO","population":13200}},{"type":"Feature","geometry":{"type":"Point","coordinates":[2.3488,48.85341]},"properties":{"name":"Paris","ascii":"Paris","country":"FR","population":2138551}},{"type":"Feature","geometry":{"type":"Point","coordinates":[9.45356,0.39241]},"properties":{"name":"Libreville","ascii":"Libreville","country":"GA","population":846090}},{"type":"Feature","geometry":{"type":"Point","coordinates":[-0.12574,51.50853]},"properties":{"name":"London","ascii":"London","country":"GB","population":8961989}},{"type":"Feature","geometry":{"type":"Point","coordinates":[-61.75226,12.05288]},"properties":{"name":"Saint George's","ascii":"Saint George's","country":"GD","population":7500}},{"type":"Feature","geometry":{"type":"Point","coordinates":[44.83412,41.69143]},"properties":{"name":"Tbilisi","ascii":"Tbilisi","country":"GE","population":1049498}},{"type":"Feature","geometry":{"type":"Point","coordinates":[-52.33455,4.9381]},"properties":{"name":"Cayenne","ascii":"Cayenne","country":"GF","population":61550}},{"type":"Feature","geometry":{"type":"Point","coordinates":[-2.53527,49.45981]},"properties":{"name":"Saint Peter Port","ascii":"Saint Peter Port","country":"GG","population":16488}},{"type":"Feature","geometry":{"type":"Point","coordinates":[-0.1969,5.55602]},"properties":{"name":"Accra","ascii":"Accra","country":"GH","population":1963264}},{"type":"Feature","geometry":{"type":"Point","coordinates":[-5.35257,36.14474]},"properties":{"name":"Gibraltar","ascii":"Gibraltar","country":"GI","population":26544}},{"type":"Feature","geometry":{"type":"Point","coordinates":[-51.72157,64.18347]},"properties":{"name":"Nuuk","ascii":"Nuuk","country":"GL","population":14798}},{"type":"Feature","geometry":{"type":"Point","coordinates":[-16.57803,13.45274]},"properties":{"name":"Banjul","ascii":"Banjul","country":"GM","population":37274}},{"type":"Feature","geometry":{"type":"Point","coordinates":[-13.67729,9.53795]},"properties":{"name":"Conakry","ascii":"Conakry","country":"GN","population":1928389}},{"type":"Feature","geometry":{"type":"Point","coordinates":[-61.73214,15.99714]},"properties":{"name":"Basse-Terre","ascii":"Basse-Terre","country":"GP","population":11472}},{"type":"Feature","geometry":{"type":"Point","coordinates":[10.82361,1.5925]},"properties":{"name":"Ciudad de la Paz","ascii":"Ciudad de la Paz","country":"GQ","population":2000}},{"type":"Feature","geometry":{"type":"Point","coordinates":[23.72784,37.98376]},"properties":{"name":"Athens","ascii":"Athens","country":"GR","population":664046}},{"type":"Feature","geometry":{"type":"Point","coordinates":[-36.5092,-54.28111]},"properties":{"name":"Grytviken","ascii":"Grytviken","country":"GS","population":2}},{"type":"Feature","geometry":{"type":"Point","coordinates":[-90.51327,14.64072]},"properties":{"name":"Guatemala City","ascii":"Guatemala City","country":"GT","population":994938}},{"type":"Feature","geometry":{"type":"Point","coordinates":[144.74886,13.47567]},"properties":{"name":"Hag\u00e5t\u00f1a","ascii":"Hagatna","country":"GU","population":1051}},{"type":"Feature","geometry":{"type":"Point","coordinates":[-15.59767,11.86357]},"properties":{"name":"Bissau","ascii":"Bissau","country":"GW","population":439704}},{"type":"Feature","geometry":{"type":"Point","coordinates":[-58.15527,6.80448]},"properties":{"name":"Georgetown","ascii":"Georgetown","country":"GY","population":235017}},{"type":"Feature","geometry":{"type":"Point","coordinates":[114.17469,22.27832]},"properties":{"name":"Hong Kong","ascii":"Hong Kong","country":"HK","population":7396076}},{"type":"Feature","geometry":{"type":"Point","coordinates":[-87.20681,14.0818]},"properties":{"name":"Tegucigalpa","ascii":"Tegucigalpa","country":"HN","population":850848}},{"type":"Feature","geometry":{"type":"Point","coordinates":[15.97798,45.81444]},"properties":{"name":"Zagreb","ascii":"Zagreb","country":"HR","population":663592}},{"type":"Feature","geometry":{"type":"Point","coordinates":[-72.33881,18.54349]},"properties":{"name":"Port-au-Prince","ascii":"Port-au-Prince","country":"HT","population":1234742}},{"type":"Feature","geometry":{"type":"Point","coordinates":[19.04045,47.49835]},"properties":{"name":"Budapest","ascii":"Budapest","country":"HU","population":1741041}},{"type":"Feature","geometry":{"type":"Point","coordinates":[106.84513,-6.21462]},"properties":{"name":"Jakarta","ascii":"Jakarta","country":"ID","population":8540121}},{"type":"Feature","geometry":{"type":"Point","coordinates":[-6.24889,53.33306]},"properties":{"name":"Dublin","ascii":"Dublin","country":"IE","population":1024027}},{"type":"Feature","geometry":{"type":"Point","coordinates":[-4.48333,54.15]},"properties":{"name":"Douglas","ascii":"Douglas","country":"IM","population":26218}},{"type":"Feature","geometry":{"type":"Point","coordinates":[77.2148,28.62137]},"properties":{"name":"New Delhi","ascii":"New Delhi","country":"IN","population":317797}},{"type":"Feature","geometry":{"type":"Point","coordinates":[44.40088,33.34058]},"properties":{"name":"Baghdad","ascii":"Baghdad","country":"IQ","population":7216000}},{"type":"Feature","geometry":{"type":"Point","coordinates":[51.42151,35.69439]},"properties":{"name":"Tehran","ascii":"Tehran","country":"IR","population":7153309}},{"type":"Feature","geometry":{"type":"Point","coordinates":[-21.89541,64.13548]},"properties":{"name":"Reykjav\u00edk","ascii":"Reykjavik","country":"IS","population":118918}},{"type":"Feature","geometry":{"type":"Point","coordinates":[12.51133,41.89193]},"properties":{"name":"Rome","ascii":"Rome","country":"IT","population":2318895}},{"type":"Feature","geometry":{"type":"Point","coordinates":[-2.10491,49.18804]},"properties":{"name":"Saint Helier","ascii":"Saint Helier","country":"JE","population":28000}},{"type":"Feature","geometry":{"type":"Point","coordinates":[-76.79358,17.99702]},"properties":{"name":"Kingston","ascii":"Kingston","country":"JM","population":937700}},{"type":"Feature","geometry":{"type":"Point","coordinates":[35.94503,31.95522]},"properties":{"name":"Amman","ascii":"Amman","country":"JO","population":1275857}},{"type":"Feature","geometry":{"type":"Point","coordinates":[139.69171,35.6895]},"properties":{"name":"Tokyo","ascii":"Tokyo","country":"JP","population":9733276}},{"type":"Feature","geometry":{"type":"Point","coordinates":[36.81667,-1.28333]},"properties":{"name":"Nairobi","ascii":"Nairobi","country":"KE","population":4397073}},{"type":"Feature","geometry":{"type":"Point","coordinates":[74.59,42.87]},"properties":{"name":"Bishkek","ascii":"Bishkek","country":"KG","population":900000}},{"type":"Feature","geometry":{"type":"Point","coordinates":[104.91601,11.56245]},"properties":{"name":"Phnom Penh","ascii":"Phnom Penh","country":"KH","population":1573544}},{"type":"Feature","geometry":{"type":"Point","coordinates":[172.97696,1.3278]},"properties":{"name":"Tarawa","ascii":"Tarawa","country":"KI","population":40311}},{"type":"Feature","geometry":{"type":"Point","coordinates":[43.25506,-11.70216]},"properties":{"name":"Moroni","ascii":"Moroni","country":"KM","population":74749}},{"type":"Feature","geometry":{"type":"Point","coordinates":[-62.72499,17.2955]},"properties":{"name":"Basseterre","ascii":"Basseterre","country":"KN","population":12920}},{"type":"Feature","geometry":{"type":"Point","coordinates":[125.75432,39.03385]},"properties":{"name":"Pyongyang","ascii":"Pyongyang","country":"KP","population":3222000}},{"type":"Feature","geometry":{"type":"Point","coordinates":[126.9784,37.566]},"properties":{"name":"Seoul","ascii":"Seoul","country":"KR","population":10349312}},{"type":"Feature","geometry":{"type":"Point","coordinates":[47.97429,29.367]},"properties":{"name":"Kuwait City","ascii":"Kuwait City","country":"KW","population":60064}},{"type":"Feature","geometry":{"type":"Point","coordinates":[-81.37436,19.2866]},"properties":{"name":"George Town","ascii":"George Town","country":"KY","population":29370}},{"type":"Feature","geometry":{"type":"Point","coordinates":[71.44598,51.1801]},"properties":{"name":"Astana","ascii":"Astana","country":"KZ","population":345604}},{"type":"Feature","geometry":{"type":"Point","coordinates":[102.6,17.96667]},"properties":{"name":"Vientiane","ascii":"Vientiane","country":"LA","population":840940}},{"type":"Feature","geometry":{"type":"Point","coordinates":[35.50157,33.89332]},"properties":{"name":"Beirut","ascii":"Beirut","country":"LB","population":1916100}},{"type":"Feature","geometry":{"type":"Point","coordinates":[-61.00614,13.9957]},"properties":{"name":"Castries","ascii":"Castries","country":"LC","population":20000}},{"type":"Feature","geometry":{"type":"Point","coordinates":[9.52154,47.14151]},"properties":{"name":"Vaduz","ascii":"Vaduz","country":"LI","population":5197}},{"type":"Feature","geometry":{"type":"Point","coordinates":[79.84868,6.93548]},"properties":{"name":"Colombo","ascii":"Colombo","country":"LK","population":648034}},{"type":"Feature","geometry":{"type":"Point","coordinates":[-10.7969,6.30054]},"properties":{"name":"Monrovia","ascii":"Monrovia","country":"LR","population":1542549}},{"type":"Feature","geometry":{"type":"Point","coordinates":[27.48333,-29.31667]},"properties":{"name":"Maseru","ascii":"Maseru","country":"LS","population":359753}},{"type":"Feature","geometry":{"type":"Point","coordinates":[25.2798,54.68916]},"properties":{"name":"Vilnius","ascii":"Vilnius","country":"LT","population":542366}},{"type":"Feature","geometry":{"type":"Point","coordinates":[6.13268,49.60982]},"properties":{"name":"Luxembourg","ascii":"Luxembourg","country":"LU","population":76684}},{"type":"Feature","geometry":{"type":"Point","coordinates":[24.10589,56.946]},"properties":{"name":"Riga","ascii":"Riga","country":"LV","population":742572}},{"type":"Feature","geometry":{"type":"Point","coordinates":[13.18733,32.88743]},"properties":{"name":"Tripoli","ascii":"Tripoli","country":"LY","population":1302947}},{"type":"Feature","geometry":{"type":"Point","coordinates":[-6.83255,34.01325]},"properties":{"name":"Rabat","ascii":"Rabat","country":"MA","population":1655753}},{"type":"Feature","geometry":{"type":"Point","coordinates":[7.42145,43.73718]},"properties":{"name":"Monaco","ascii":"Monaco","country":"MC","population":32965}},{"type":"Feature","geometry":{"type":"Point","coordinates":[28.85938,47.00902]},"properties":{"name":"Chisinau","ascii":"Chisinau","country":"MD","population":635994}},{"type":"Feature","geometry":{"type":"Point","coordinates":[19.26309,42.44124]},"properties":{"name":"Podgorica","ascii":"Podgorica","country":"ME","population":236852}},{"type":"Feature","geometry":{"type":"Point","coordinates":[-63.08302,18.06819]},"properties":{"name":"Marigot","ascii":"Marigot","country":"MF","population":5700}},{"type":"Feature","geometry":{"type":"Point","coordinates":[47.53613,-18.91368]},"properties":{"name":"Antananarivo","ascii":"Antananarivo","country":"MG","population":1349501}},{"type":"Feature","geometry":{"type":"Point","coordinates":[171.38027,7.08971]},"properties":{"name":"Majuro","ascii":"Majuro","country":"MH","population":25400}},{"type":"Feature","geometry":{"type":"Point","coordinates":[21.43141,41.99646]},"properties":{"name":"Skopje","ascii":"Skopje","country":"MK","population":474889}},{"type":"Feature","geometry":{"type":"Point","coordinates":[-7.97522,12.60915]},"properties":{"name":"Bamako","ascii":"Bamako","country":"ML","population":4227569}},{"type":"Feature","geometry":{"type":"Point","coordinates":[96.12972,19.745]},"properties":{"name":"Nay Pyi Taw","ascii":"Nay Pyi Taw","country":"MM","population":925000}},{"type":"Feature","geometry":{"type":"Point","coordinates":[106.88324,47.90771]},"properties":{"name":"Ulan Bator","ascii":"Ulan Bator","country":"MN","population":844818}},{"type":"Feature","geometry":{"type":"Point","coordinates":[113.54611,22.20056]},"properties":{"name":"Macau","ascii":"Macau","country":"MO","population":649335}},{"type":"Feature","geometry":{"type":"Point","coordinates":[145.7545,15.21233]},"properties":{"name":"Saipan","ascii":"Saipan","country":"MP","population":48220}},{"type":"Feature","geometry":{"type":"Point","coordinates":[-61.07418,14.60365]},"properties":{"name":"Fort-de-France","ascii":"Fort-de-France","country":"MQ","population":89995}},{"type":"Feature","geometry":{"type":"Point","coordinates":[-15.9785,18.08581]},"properties":{"name":"Nouakchott","ascii":"Nouakchott","country":"MR","population":1184530}},{"type":"Feature","geometry":{"type":"Point","coordinates":[-62.21292,16.70555]},"properties":{"name":"Plymouth","ascii":"Plymouth","country":"MS","population":0}},{"type":"Feature","geometry":{"type":"Point","coordinates":[14.5148,35.89968]},"properties":{"name":"Valletta","ascii":"Valletta","country":"MT","population":6794}},{"type":"Feature","geometry":{"type":"Point","coordinates":[57.49889,-20.16194]},"properties":{"name":"Port Louis","ascii":"Port Louis","country":"MU","population":155226}},{"type":"Feature","geometry":{"type":"Point","coordinates":[73.50916,4.17521]},"properties":{"name":"Male","ascii":"Male","country":"MV","population":103693}},{"type":"Feature","geometry":{"type":"Point","coordinates":[33.78725,-13.96692]},"properties":{"name":"Lilongwe","ascii":"Lilongwe","country":"MW","population":1115815}},{"type":"Feature","geometry":{"type":"Point","coordinates":[-99.12766,19.42847]},"properties":{"name":"Mexico City","ascii":"Mexico City","country":"MX","population":12294193}},{"type":"Feature","geometry":{"type":"Point","coordinates":[101.68653,3.1412]},"properties":{"name":"Kuala Lumpur","ascii":"Kuala Lumpur","country":"MY","population":1453975}},{"type":"Feature","geometry":{"type":"Point","coordinates":[32.58322,-25.96553]},"properties":{"name":"Maputo","ascii":"Maputo","country":"MZ","population":1254837}},{"type":"Feature","geometry":{"type":"Point","coordinates":[17.08323,-22.55941]},"properties":{"name":"Windhoek","ascii":"Windhoek","country":"NA","population":386219}},{"type":"Feature","geometry":{"type":"Point","coordinates":[166.44884,-22.27407]},"properties":{"name":"Noum\u00e9a","ascii":"Noumea","country":"NC","population":93060}},{"type":"Feature","geometry":{"type":"Point","coordinates":[2.1098,13.51366]},"properties":{"name":"Niamey","ascii":"Niamey","country":"NE","population":1323691}},{"type":"Feature","geometry":{"type":"Point","coordinates":[167.96628,-29.05459]},"properties":{"name":"Kingston","ascii":"Kingston","country":"NF","population":880}},{"type":"Feature","geometry":{"type":"Point","coordinates":[7.49508,9.05785]},"properties":{"name":"Abuja","ascii":"Abuja","country":"NG","population":2690000}},{"type":"Feature","geometry":{"type":"Point","coordinates":[-86.2504,12.13282]},"properties":{"name":"Managua","ascii":"Managua","country":"NI","population":973087}},{"type":"Feature","geometry":{"type":"Point","coordinates":[4.88969,52.37403]},"properties":{"name":"Amsterdam","ascii":"Amsterdam","country":"NL","population":741636}},{"type":"Feature","geometry":{"type":"Point","coordinates":[10.74609,59.91273]},"properties":{"name":"Oslo","ascii":"Oslo","country":"NO","population":1082575}},{"type":"Feature","geometry":{"type":"Point","coordinates":[85.3206,27.70169]},"properties":{"name":"Kathmandu","ascii":"Kathmandu","country":"NP","population":1442271}},{"type":"Feature","geometry":{"type":"Point","coordinates":[166.9252,-0.55085]},"properties":{"name":"Yaren","ascii":"Yaren","country":"NR","population":1100}},{"type":"Feature","geometry":{"type":"Point","coordinates":[-169.91957,-19.05294]},"properties":{"name":"Alofi","ascii":"Alofi","country":"NU","population":624}},{"type":"Feature","geometry":{"type":"Point","coordinates":[174.77557,-41.28664]},"properties":{"name":"Wellington","ascii":"Wellington","country":"NZ","population":381900}},{"type":"Feature","geometry":{"type":"Point","coordinates":[58.40778,23.58413]},"properties":{"name":"Muscat","ascii":"Muscat","country":"OM","population":797000}},{"type":"Feature","geometry":{"type":"Point","coordinates":[-79.51973,8.9936]},"properties":{"name":"Panam\u00e1","ascii":"Panama","country":"PA","population":408168}},{"type":"Feature","geometry":{"type":"Point","coordinates":[-77.02824,-12.04318]},"properties":{"name":"Lima","ascii":"Lima","country":"PE","population":7737002}},{"type":"Feature","geometry":{"type":"Point","coordinates":[-149.56843,-17.5347]},"properties":{"name":"Papeete","ascii":"Papeete","country":"PF","population":26357}},{"type":"Feature","geometry":{"type":"Point","coordinates":[147.15089,-9.47723]},"properties":{"name":"Port Moresby","ascii":"Port Moresby","country":"PG","population":283733}},{"type":"Feature","geometry":{"type":"Point","coordinates":[120.9822,14.6042]},"properties":{"name":"Manila","ascii":"Manila","country":"PH","population":1600000}},{"type":"Feature","geometry":{"type":"Point","coordinates":[73.04329,33.72148]},"properties":{"name":"Islamabad","ascii":"Islamabad","country":"PK","population":601600}},{"type":"Feature","geometry":{"type":"Point","coordinates":[21.01178,52.22977]},"properties":{"name":"Warsaw","ascii":"Warsaw","country":"PL","population":1702139}},{"type":"Feature","geometry":{"type":"Point","coordinates":[-56.1773,46.77914]},"properties":{"name":"Saint-Pierre","ascii":"Saint-Pierre","country":"PM","population":6200}},{"type":"Feature","geometry":{"type":"Point","coordinates":[-130.10147,-25.06597]},"properties":{"name":"Adamstown","ascii":"Adamstown","country":"PN","population":46}},{"type":"Feature","geometry":{"type":"Point","coordinates":[-66.10572,18.46633]},"properties":{"name":"San Juan","ascii":"San Juan","country":"PR","population":418140}},{"type":"Feature","geometry":{"type":"Point","coordinates":[-9.1498,38.72509]},"properties":{"name":"Lisbon","ascii":"Lisbon","country":"PT","population":517802}},{"type":"Feature","geometry":{"type":"Point","coordinates":[134.6238,7.50077]},"properties":{"name":"Ngerulmud","ascii":"Ngerulmud","country":"PW","population":1}},{"type":"Feature","geometry":{"type":"Point","coordinates":[-57.647,-25.28646]},"properties":{"name":"Asunci\u00f3n","ascii":"Asuncion","country":"PY","population":1482200}},{"type":"Feature","geometry":{"type":"Point","coordinates":[51.53096,25.28545]},"properties":{"name":"Doha","ascii":"Doha","country":"QA","population":344939}},{"type":"Feature","geometry":{"type":"Point","coordinates":[55.4504,-20.88231]},"properties":{"name":"Saint-Denis","ascii":"Saint-Denis","country":"RE","population":154765}},{"type":"Feature","geometry":{"type":"Point","coordinates":[26.10626,44.43225]},"properties":{"name":"Bucharest","ascii":"Bucharest","country":"RO","population":1877155}},{"type":"Feature","geometry":{"type":"Point","coordinates":[20.46513,44.80401]},"properties":{"name":"Belgrade","ascii":"Belgrade","country":"RS","population":1273651}},{"type":"Feature","geometry":{"type":"Point","coordinates":[37.61781,55.75204]},"properties":{"name":"Moscow","ascii":"Moscow","country":"RU","population":10381222}},{"type":"Feature","geometry":{"type":"Point","coordinates":[30.05885,-1.94995]},"properties":{"name":"Kigali","ascii":"Kigali","country":"RW","population":1132686}},{"type":"Feature","geometry":{"type":"Point","coordinates":[46.72185,24.68773]},"properties":{"name":"Riyadh","ascii":"Riyadh","country":"SA","population":4205961}},{"type":"Feature","geometry":{"type":"Point","coordinates":[159.95,-9.43333]},"properties":{"name":"Honiara","ascii":"Honiara","country":"SB","population":56298}},{"type":"Feature","geometry":{"type":"Point","coordinates":[55.45501,-4.62001]},"properties":{"name":"Victoria","ascii":"Victoria","country":"SC","population":22881}},{"type":"Feature","geometry":{"type":"Point","coordinates":[32.53241,15.55177]},"properties":{"name":"Khartoum","ascii":"Khartoum","country":"SD","population":1974647}},{"type":"Feature","geometry":{"type":"Point","coordinates":[18.06871,59.32938]},"properties":{"name":"Stockholm","ascii":"Stockholm","country":"SE","population":1515017}},{"type":"Feature","geometry":{"type":"Point","coordinates":[103.85007,1.28967]},"properties":{"name":"Singapore","ascii":"Singapore","country":"SG","population":5638700}},{"type":"Feature","geometry":{"type":"Point","coordinates":[-5.71816,-15.92488]},"properties":{"name":"Jamestown","ascii":"Jamestown","country":"SH","population":637}},{"type":"Feature","geometry":{"type":"Point","coordinates":[14.50513,46.05108]},"properties":{"name":"Ljubljana","ascii":"Ljubljana","country":"SI","population":272220}},{"type":"Feature","geometry":{"type":"Point","coordinates":[15.64689,78.22334]},"properties":{"name":"Longyearbyen","ascii":"Longyearbyen","country":"SJ","population":2368}},{"type":"Feature","geometry":{"type":"Point","coordinates":[17.10674,48.14816]},"properties":{"name":"Bratislava","ascii":"Bratislava","country":"SK","population":423737}},{"type":"Feature","geometry":{"type":"Point","coordinates":[-13.2356,8.48714]},"properties":{"name":"Freetown","ascii":"Freetown","country":"SL","population":802639}},{"type":"Feature","geometry":{"type":"Point","coordinates":[12.44639,43.93667]},"properties":{"name":"San Marino","ascii":"San Marino","country":"SM","population":4500}},{"type":"Feature","geometry":{"type":"Point","coordinates":[-17.44406,14.6937]},"properties":{"name":"Dakar","ascii":"Dakar","country":"SN","population":2646503}},{"type":"Feature","geometry":{"type":"Point","coordinates":[45.34375,2.03711]},"properties":{"name":"Mogadishu","ascii":"Mogadishu","country":"SO","population":2587183}},{"type":"Feature","geometry":{"type":"Point","coordinates":[-55.16682,5.86638]},"properties":{"name":"Paramaribo","ascii":"Paramaribo","country":"SR","population":223757}},{"type":"Feature","geometry":{"type":"Point","coordinates":[31.58247,4.85165]},"properties":{"name":"Juba","ascii":"Juba","country":"SS","population":450000}},{"type":"Feature","geometry":{"type":"Point","coordinates":[6.7299,0.33756]},"properties":{"name":"S\u00e3o Tom\u00e9","ascii":"Sao Tome","country":"ST","population":53300}},{"type":"Feature","geometry":{"type":"Point","coordinates":[-89.18718,13.68935]},"properties":{"name":"San Salvador","ascii":"San Salvador","country":"SV","population":525990}},{"type":"Feature","geometry":{"type":"Point","coordinates":[-63.04582,18.026]},"properties":{"name":"Philipsburg","ascii":"Philipsburg","country":"SX","population":1400}},{"type":"Feature","geometry":{"type":"Point","coordinates":[36.29128,33.5102]},"properties":{"name":"Damascus","ascii":"Damascus","country":"SY","population":1569394}},{"type":"Feature","geometry":{"type":"Point","coordinates":[31.13333,-26.31667]},"properties":{"name":"Mbabane","ascii":"Mbabane","country":"SZ","population":76218}},{"type":"Feature","geometry":{"type":"Point","coordinates":[-71.14188,21.46122]},"properties":{"name":"Cockburn Town","ascii":"Cockburn Town","country":"TC","population":3720}},{"type":"Feature","geometry":{"type":"Point","coordinates":[15.0444,12.10672]},"properties":{"name":"N'Djamena","ascii":"N'Djamena","country":"TD","population":1359526}},{"type":"Feature","geometry":{"type":"Point","coordinates":[70.21937,-49.34916]},"properties":{"name":"Port-aux-Fran\u00e7ais","ascii":"Port-aux-Francais","country":"TF","population":45}},{"type":"Feature","geometry":{"type":"Point","coordinates":[1.22154,6.12874]},"properties":{"name":"Lom\u00e9","ascii":"Lome","country":"TG","population":2188376}},{"type":"Feature","geometry":{"type":"Point","coordinates":[100.50144,13.75398]},"properties":{"name":"Bangkok","ascii":"Bangkok","country":"TH","population":5104476}},{"type":"Feature","geometry":{"type":"Point","coordinates":[68.77905,38.53575]},"properties":{"name":"Dushanbe","ascii":"Dushanbe","country":"TJ","population":679400}},{"type":"Feature","geometry":{"type":"Point","coordinates":[125.57361,-8.55861]},"properties":{"name":"Dili","ascii":"Dili","country":"TL","population":150000}},{"type":"Feature","geometry":{"type":"Point","coordinates":[58.38333,37.95]},"properties":{"name":"Ashgabat","ascii":"Ashgabat","country":"TM","population":727700}},{"type":"Feature","geometry":{"type":"Point","coordinates":[10.16579,36.81897]},"properties":{"name":"Tunis","ascii":"Tunis","country":"TN","population":693210}},{"type":"Feature","geometry":{"type":"Point","coordinates":[-175.20114,-21.13683]},"properties":{"name":"Nuku\u2018alofa","ascii":"Nuku'alofa","country":"TO","population":22400}},{"type":"Feature","geometry":{"type":"Point","coordinates":[32.85427,39.91987]},"properties":{"name":"Ankara","ascii":"Ankara","country":"TR","population":3517182}},{"type":"Feature","geometry":{"type":"Point","coordinates":[-61.51889,10.66668]},"properties":{"name":"Port of Spain","ascii":"Port of Spain","country":"TT","population":49031}},{"type":"Feature","geometry":{"type":"Point","coordinates":[179.19417,-8.52425]},"properties":{"name":"Funafuti","ascii":"Funafuti","country":"TV","population":6320}},{"type":"Feature","geometry":{"type":"Point","coordinates":[121.52639,25.05306]},"properties":{"name":"Taipei","ascii":"Taipei","country":"TW","population":7871900}},{"type":"Feature","geometry":{"type":"Point","coordinates":[35.73947,-6.17221]},"properties":{"name":"Dodoma","ascii":"Dodoma","country":"TZ","population":765179}},{"type":"Feature","geometry":{"type":"Point","coordinates":[30.5238,50.45466]},"properties":{"name":"Kyiv","ascii":"Kyiv","country":"UA","population":2952301}},{"type":"Feature","geometry":{"type":"Point","coordinates":[32.58219,0.31628]},"properties":{"name":"Kampala","ascii":"Kampala","country":"UG","population":1680600}},{"type":"Feature","geometry":{"type":"Point","coordinates":[-77.03637,38.89511]},"properties":{"name":"Washington","ascii":"Washington","country":"US","population":689545}},{"type":"Feature","geometry":{"type":"Point","coordinates":[-56.18816,-34.90328]},"properties":{"name":"Montevideo","ascii":"Montevideo","country":"UY","population":1270737}},{"type":"Feature","geometry":{"type":"Point","coordinates":[69.21627,41.26465]},"properties":{"name":"Tashkent","ascii":"Tashkent","country":"UZ","population":1978028}},{"type":"Feature","geometry":{"type":"Point","coordinates":[12.45414,41.90268]},"properties":{"name":"Vatican City","ascii":"Vatican City","country":"VA","population":829}},{"type":"Feature","geometry":{"type":"Point","coordinates":[-61.22742,13.15527]},"properties":{"name":"Kingstown","ascii":"Kingstown","country":"VC","population":24518}},{"type":"Feature","geometry":{"type":"Point","coordinates":[-66.87919,10.48801]},"properties":{"name":"Caracas","ascii":"Caracas","country":"VE","population":3000000}},{"type":"Feature","geometry":{"type":"Point","coordinates":[-64.62079,18.42693]},"properties":{"name":"Road Town","ascii":"Road Town","country":"VG","population":8449}},{"type":"Feature","geometry":{"type":"Point","coordinates":[-64.9307,18.3419]},"properties":{"name":"Charlotte Amalie","ascii":"Charlotte Amalie","country":"VI","population":20000}},{"type":"Feature","geometry":{"type":"Point","coordinates":[105.84117,21.0245]},"properties":{"name":"Hanoi","ascii":"Hanoi","country":"VN","population":8053663}},{"type":"Feature","geometry":{"type":"Point","coordinates":[168.31366,-17.73648]},"properties":{"name":"Port-Vila","ascii":"Port-Vila","country":"VU","population":35901}},{"type":"Feature","geometry":{"type":"Point","coordinates":[-176.17453,-13.28163]},"properties":{"name":"Mata-Utu","ascii":"Mata-Utu","country":"WF","population":1200}},{"type":"Feature","geometry":{"type":"Point","coordinates":[-171.76666,-13.83333]},"properties":{"name":"Apia","ascii":"Apia","country":"WS","population":40407}},{"type":"Feature","geometry":{"type":"Point","coordinates":[21.16688,42.67272]},"properties":{"name":"Pristina","ascii":"Pristina","country":"XK","population":550000}},{"type":"Feature","geometry":{"type":"Point","coordinates":[44.20646,15.35452]},"properties":{"name":"Sanaa","ascii":"Sanaa","country":"YE","population":1937451}},{"type":"Feature","geometry":{"type":"Point","coordinates":[45.22878,-12.78234]},"properties":{"name":"Mamoudzou","ascii":"Mamoudzou","country":"YT","population":54831}},{"type":"Feature","geometry":{"type":"Point","coordinates":[28.18783,-25.74486]},"properties":{"name":"Pretoria","ascii":"Pretoria","country":"ZA","population":2112693}},{"type":"Feature","geometry":{"type":"Point","coordinates":[28.28713,-15.40669]},"properties":{"name":"Lusaka","ascii":"Lusaka","country":"ZM","population":2212301}},{"type":"Feature","geometry":{"type":"Point","coordinates":[31.05337,-17.82772]},"properties":{"name":"Harare","ascii":"Harare","country":"ZW","population":1542813}}]}
